[
  {
    "name": "STARLINK-36592",
    "noradId": "68007",
    "line1": "1 68007U 26039X   26182.14129063  .00007296  00000+0  27440-3 0  9999",
    "line2": "2 68007  43.0024 128.2719 0001447 266.8383  93.2304 15.27577539 19055"
  },
  {
    "name": "STARLINK-36911",
    "noradId": "68008",
    "line1": "1 68008U 26039Y   26182.13744515  .00025829  00000+0  94365-3 0  9996",
    "line2": "2 68008  42.9987 128.2423 0000694 251.4807 108.5969 15.27621100 19059"
  },
  {
    "name": "STARLINK-36956",
    "noradId": "68009",
    "line1": "1 68009U 26039Z   26182.13358897  .00022583  00000+0  82726-3 0  9993",
    "line2": "2 68009  42.9965 128.2149 0000473 162.9807 197.1060 15.27596062 19056"
  },
  {
    "name": "STARLINK-36953",
    "noradId": "68010",
    "line1": "1 68010U 26039AA  26182.12330778  .00030242  00000+0  11035-2 0  9997",
    "line2": "2 68010  43.0020 128.1265 0001508 273.6250  86.4429 15.27595085 19055"
  },
  {
    "name": "STARLINK-36991",
    "noradId": "68011",
    "line1": "1 68011U 26039AB  26182.11947669  .00051537  00000+0  18671-2 0  9993",
    "line2": "2 68011  43.0016 128.1263 0000855 227.8618 132.2162 15.27617974 19058"
  },
  {
    "name": "STARLINK-36936",
    "noradId": "68012",
    "line1": "1 68012U 26039AC  26181.91558463  .00018234  00000+0  67026-3 0  9997",
    "line2": "2 68012  42.9998 129.1530 0001233 259.7184 100.3528 15.27591725 19021"
  },
  {
    "name": "STARLINK-36967",
    "noradId": "68013",
    "line1": "1 68013U 26039AD  26182.12973378  .00025131  00000+0  91930-3 0  9993",
    "line2": "2 68013  42.9986 128.2000 0000814 246.9074 113.1692 15.27592680 19059"
  },
  {
    "name": "STARLINK-36985",
    "noradId": "68014",
    "line1": "1 68014U 26039AE  26182.11558495  .00020813  00000+0  76311-3 0  9990",
    "line2": "2 68014  43.0022 128.0649 0001731 280.8043  79.2614 15.27606226 19050"
  },
  {
    "name": "STARLINK-36335",
    "noradId": "68015",
    "line1": "1 68015U 26040A   26181.80708810  .00024728  00000+0  76565-3 0  9996",
    "line2": "2 68015  97.2829 130.2335 0001708  96.0309 264.1129 15.33449126 18797"
  },
  {
    "name": "STARLINK-36923",
    "noradId": "68016",
    "line1": "1 68016U 26040B   26182.12792285  .00027939  00000+0  86397-3 0  9993",
    "line2": "2 68016  97.2834 130.5585 0001856  89.7476 270.3980 15.33465716 18845"
  },
  {
    "name": "STARLINK-36568",
    "noradId": "68017",
    "line1": "1 68017U 26040C   26182.12520157  .00037600  00000+0  11605-2 0  9996",
    "line2": "2 68017  97.2818 130.5632 0001233 100.5400 259.5982 15.33464629 18842"
  },
  {
    "name": "STARLINK-36930",
    "noradId": "68018",
    "line1": "1 68018U 26040D   26182.26116652  .00037817  00000+0  11678-2 0  9993",
    "line2": "2 68018  97.2808 130.6847 0001128  97.3665 262.7706 15.33445314 18862"
  },
  {
    "name": "STARLINK-36921",
    "noradId": "68019",
    "line1": "1 68019U 26040E   26182.11976927  .00028150  00000+0  87050-3 0  9995",
    "line2": "2 68019  97.2827 130.5718 0002579  97.8897 262.2639 15.33462335 18843"
  },
  {
    "name": "STARLINK-36928",
    "noradId": "68020",
    "line1": "1 68020U 26040F   26182.12247924  .00028628  00000+0  88504-3 0  9991",
    "line2": "2 68020  97.2839 130.5687 0001014  79.9823 280.1534 15.33470187 18843"
  },
  {
    "name": "STARLINK-36858",
    "noradId": "68021",
    "line1": "1 68021U 26040G   26182.43787139  .00039872  00000+0  12290-2 0  9994",
    "line2": "2 68021  97.2851 130.9052 0000818 281.1503  78.9648 15.33492200 18929"
  },
  {
    "name": "STARLINK-36916",
    "noradId": "68022",
    "line1": "1 68022U 26040H   26182.44331466  .00040107  00000+0  12363-2 0  9998",
    "line2": "2 68022  97.2838 130.8925 0001375 138.7792 221.3555 15.33489894 18891"
  },
  {
    "name": "STARLINK-36871",
    "noradId": "68023",
    "line1": "1 68023U 26040J   26182.44059596  .00046658  00000+0  14368-2 0  9994",
    "line2": "2 68023  97.2866 130.9021 0000426 244.8446 115.2753 15.33486919 18898"
  },
  {
    "name": "STARLINK-36891",
    "noradId": "68024",
    "line1": "1 68024U 26040K   26182.63092844  .00018351  00000+0  56896-3 0  9991",
    "line2": "2 68024  97.2838 131.0990 0001857  90.8199 269.3256 15.33466618 18925"
  },
  {
    "name": "STARLINK-36378",
    "noradId": "68025",
    "line1": "1 68025U 26040L   26182.42972444  .00035337  00000+0  10914-2 0  9995",
    "line2": "2 68025  97.2831 130.9134 0001469 107.0692 253.0711 15.33454869 18892"
  },
  {
    "name": "STARLINK-36884",
    "noradId": "68026",
    "line1": "1 68026U 26040M   26182.43244184  .00030830  00000+0  95295-3 0  9999",
    "line2": "2 68026  97.2823 130.9113 0001218 108.1553 251.9823 15.33459574 18890"
  },
  {
    "name": "STARLINK-36940",
    "noradId": "68027",
    "line1": "1 68027U 26040N   26182.46235239  .00039223  00000+0  12097-2 0  9997",
    "line2": "2 68027  97.2840 131.0279 0001269 101.2958 258.8427 15.33479099 18906"
  },
  {
    "name": "STARLINK-36944",
    "noradId": "68029",
    "line1": "1 68029U 26040Q   26182.42700087  .00044329  00000+0  13661-2 0  9994",
    "line2": "2 68029  97.2832 130.9182 0001595  97.6607 262.4817 15.33475191 18892"
  },
  {
    "name": "STARLINK-36942",
    "noradId": "68030",
    "line1": "1 68030U 26040R   26182.42429037  .00042867  00000+0  13220-2 0  9995",
    "line2": "2 68030  97.2829 130.9221 0001760  94.7425 265.4019 15.33458069 18896"
  },
  {
    "name": "STARLINK-36913",
    "noradId": "68031",
    "line1": "1 68031U 26040S   26182.42157032  .00039864  00000+0  12303-2 0  9993",
    "line2": "2 68031  97.2841 130.9207 0001826 101.7804 258.3644 15.33452018 18891"
  },
  {
    "name": "STARLINK-36935",
    "noradId": "68032",
    "line1": "1 68032U 26040T   26182.13879755  .00037385  00000+0  11535-2 0  9997",
    "line2": "2 68032  97.2836 130.7003 0001579  86.9610 273.1814 15.33476357 18854"
  },
  {
    "name": "STARLINK-36947",
    "noradId": "68033",
    "line1": "1 68033U 26040U   26182.28833745  .00038314  00000+0  11819-2 0  9991",
    "line2": "2 68033  97.2839 130.8035 0000880 136.4510 223.6803 15.33476713 18874"
  },
  {
    "name": "STARLINK-36939",
    "noradId": "68034",
    "line1": "1 68034U 26040V   26181.82067912  .00023883  00000+0  73931-3 0  9995",
    "line2": "2 68034  97.2837 130.3616 0001441  95.2549 264.8858 15.33464696 18808"
  },
  {
    "name": "STARLINK-36943",
    "noradId": "68035",
    "line1": "1 68035U 26040W   26182.27202639  .00032710  00000+0  10103-2 0  9993",
    "line2": "2 68035  97.2846 130.8274 0000789  60.9792 299.1530 15.33470749 20006"
  },
  {
    "name": "STARLINK-36906",
    "noradId": "68036",
    "line1": "1 68036U 26040X   26181.43186630  .00016123  00000+0  50060-3 0  9990",
    "line2": "2 68036  97.2842 129.9694 0001427  95.4312 264.7094 15.33449999 18743"
  },
  {
    "name": "STARLINK-36388",
    "noradId": "68037",
    "line1": "1 68037U 26040Y   26181.81794449  .00011362  00000+0  35351-3 0  9992",
    "line2": "2 68037  97.2895 130.3688 0001712 103.5146 256.6287 15.33464781 18801"
  },
  {
    "name": "STARLINK-36895",
    "noradId": "68038",
    "line1": "1 68038U 26040Z   26181.43458889  .00013290  00000+0  41322-3 0  9993",
    "line2": "2 68038  97.2831 129.9733 0001447  96.3935 263.7473 15.33447376 18747"
  },
  {
    "name": "STARLINK-36373",
    "noradId": "68039",
    "line1": "1 68039U 26040AA  26181.43730687  .00009502  00000+0  29638-3 0  9990",
    "line2": "2 68039  97.2857 129.9609 0001499 101.0601 259.0811 15.33432714 18743"
  },
  {
    "name": "STARLINK-36711",
    "noradId": "68040",
    "line1": "1 68040U 26041A   26182.43547043  .00023835  00000+0  71397-3 0  9990",
    "line2": "2 68040  53.1572 238.6869 0001127  63.5586 296.5532 15.34415369 18843"
  },
  {
    "name": "STARLINK-36825",
    "noradId": "68041",
    "line1": "1 68041U 26041B   26182.41863362  .00040220  00000+0  11942-2 0  9990",
    "line2": "2 68041  53.1579 238.5576 0001284 109.4442 250.6699 15.34423737 18843"
  },
  {
    "name": "STARLINK-36925",
    "noradId": "68042",
    "line1": "1 68042U 26041C   26182.43603194  .00029195  00000+0  87146-3 0  9996",
    "line2": "2 68042  53.1579 240.8186 0001235  83.0787 277.0356 15.34413308 18815"
  },
  {
    "name": "STARLINK-36902",
    "noradId": "68043",
    "line1": "1 68043U 26041D   26182.48643848  .00056640  00000+0  16740-2 0  9998",
    "line2": "2 68043  53.1585 240.4102 0001353  62.6656 297.4484 15.34416299 18827"
  },
  {
    "name": "STARLINK-36966",
    "noradId": "68044",
    "line1": "1 68044U 26041E   26182.42284742  .00044286  00000+0  13128-2 0  9997",
    "line2": "2 68044  53.1579 238.6068 0001037  79.4657 280.6462 15.34431247 18849"
  },
  {
    "name": "STARLINK-36864",
    "noradId": "68045",
    "line1": "1 68045U 26041F   26182.44388625  .00028781  00000+0  85907-3 0  9992",
    "line2": "2 68045  53.1574 238.7335 0001408  85.7983 274.3181 15.34422449 18849"
  },
  {
    "name": "STARLINK-36321",
    "noradId": "68046",
    "line1": "1 68046U 26041G   26182.53895258  .00032317  00000+0  96313-3 0  9991",
    "line2": "2 68046  53.1569 240.0346 0001096  70.2362 289.8759 15.34411557 18834"
  },
  {
    "name": "STARLINK-36181",
    "noradId": "68047",
    "line1": "1 68047U 26041H   26182.58935841  .00020025  00000+0  60188-3 0  9994",
    "line2": "2 68047  53.1560 239.6302 0001523  55.1390 304.9756 15.34417313 18843"
  },
  {
    "name": "STARLINK-36318",
    "noradId": "68048",
    "line1": "1 68048U 26041J   26182.59730726  .00028185  00000+0  84148-3 0  9998",
    "line2": "2 68048  53.1564 238.2671 0003177  37.2237 322.8986 15.34423933 18861"
  },
  {
    "name": "STARLINK-36885",
    "noradId": "68049",
    "line1": "1 68049U 26041K   26182.42705869  .00049700  00000+0  14710-2 0  9994",
    "line2": "2 68049  53.1578 238.6359 0000841  80.2919 279.8179 15.34428672 18842"
  }
]